ONEWEB-0066             
1 45424U 20020A   23357.66436603 -.00000230  00000+0 -68494-3 0  9997
2 45424  87.8969 201.2175 0001441 107.1064 253.0222 13.11414132183868
ONEWEB-0067             
1 45425U 20020B   23357.61160601 -.00000327  00000+0 -95892-3 0  9994
2 45425  87.8958 201.1956 0001182  84.5868 275.5395 13.11418728183916
ONEWEB-0080             
1 45426U 20020C   23357.63679203  .00000620  00000+0  17123-2 0  9994
2 45426  87.8972 201.2263 0001567 100.1317 259.9987 13.11418512183886
ONEWEB-0090             
1 45427U 20020D   23357.65466414  .00000228  00000+0  60784-3 0  9991
2 45427  87.8964 201.1984 0001554  94.9857 265.1449 13.11417848183852
ONEWEB-0061             
1 45428U 20020E   23357.61079529 -.00000338  00000+0 -99075-3 0  9994
2 45428  87.8969 201.2108 0001399  92.4876 267.6412 13.11418233183809
ONEWEB-0081             
1 45429U 20020F   23357.59131530 -.00000477  00000+0 -13829-2 0  9999
2 45429  87.8968 201.2326 0001247  95.0444 265.0826 13.11413591183918
ONEWEB-0069             
1 45430U 20020G   23357.65787903  .00000150  00000+0  38748-3 0  9993
2 45430  87.8961 201.2080 0001537  90.7413 269.3891 13.11414251183856
ONEWEB-0031             
1 45431U 20020H   23357.93386049 -.00000724  00000+0 -20799-2 0  9996
2 45431  87.8972 201.1510 0001531  74.8038 285.3259 13.11409960183875
